{
  "type": "FeatureCollection",
  "features": [
    {
      "type": "Feature",
      "properties": {
        "norad_id": 27954,
        "name": "GALAXY 13 (HORIZONS-1)",
        "group": "intelsat",
        "lat": -0.17759633258061874,
        "lon": -84.04079264945695,
        "alt_km": 35777.35716358753,
        "timestamp": "2025-12-15T22:44:28.591254+00:00",
        "meta_object_name": "GALAXY 13 (HORIZONS-1)",
        "meta_object_id": "2003-044A",
        "meta_epoch": "2025-12-15T08:47:38.720832",
        "meta_mean_motion": 1.00272716,
        "meta_eccentricity": 0.00020724,
        "meta_inclination": 0.9427,
        "meta_ra_of_asc_node": 86.4353,
        "meta_arg_of_pericenter": 173.0532,
        "meta_mean_anomaly": 166.6921,
        "meta_ephemeris_type": 0,
        "meta_classification_type": "U",
        "meta_norad_cat_id": 27954,
        "meta_element_set_no": 999,
        "meta_rev_at_epoch": 4472,
        "meta_bstar": 0,
        "meta_mean_motion_dot": 1.53e-06,
        "meta_mean_motion_ddot": 0,
        "tle_line1": "1 27954U 03044A   25349.36642038  .00000153  00000+0  00000+0 0  9990",
        "tle_line2": "2 27954   0.9427  86.4353 0002072 173.0532 166.6921  1.00272716 44726"
      },
      "geometry": {
        "type": "Point",
        "coordinates": [
          -84.04079264945695,
          -0.17759633258061874
        ]
      }
    },
    {
      "type": "Feature",
      "properties": {
        "norad_id": 28358,
        "name": "INTELSAT 10-02",
        "group": "intelsat",
        "lat": 0.01561839935070899,
        "lon": 65.00036444683256,
        "alt_km": 35788.500786432,
        "timestamp": "2025-12-15T22:44:28.591283+00:00",
        "meta_object_name": "INTELSAT 10-02",
        "meta_object_id": "2004-022A",
        "meta_epoch": "2025-12-15T03:06:37.274112",
        "meta_mean_motion": 1.00271755,
        "meta_eccentricity": 0.00010737,
        "meta_inclination": 0.0256,
        "meta_ra_of_asc_node": 73.1218,
        "meta_arg_of_pericenter": 229.4076,
        "meta_mean_anomaly": 187.2017,
        "meta_ephemeris_type": 0,
        "meta_classification_type": "U",
        "meta_norad_cat_id": 28358,
        "meta_element_set_no": 999,
        "meta_rev_at_epoch": 7871,
        "meta_bstar": 0,
        "meta_mean_motion_dot": 1e-07,
        "meta_mean_motion_ddot": 0,
        "tle_line1": "1 28358U 04022A   25349.12959808  .00000010  00000+0  00000+0 0  9998",
        "tle_line2": "2 28358   0.0256  73.1218 0001073 229.4076 187.2017  1.00271755 78711"
      },
      "geometry": {
        "type": "Point",
        "coordinates": [
          65.00036444683256,
          0.01561839935070899
        ]
      }
    },
    {
      "type": "Feature",
      "properties": {
        "norad_id": 28626,
        "name": "XM-3 (RHYTHM)",
        "group": "intelsat",
        "lat": 0.1764211797265284,
        "lon": 165.03540921860872,
        "alt_km": 36167.449172966764,
        "timestamp": "2025-12-15T22:44:28.591308+00:00",
        "meta_object_name": "XM-3 (RHYTHM)",
        "meta_object_id": "2005-008A",
        "meta_epoch": "2025-12-15T07:01:29.779392",
        "meta_mean_motion": 0.98951391,
        "meta_eccentricity": 0.00016993,
        "meta_inclination": 0.1812,
        "meta_ra_of_asc_node": 81.7516,
        "meta_arg_of_pericenter": 275.0715,
        "meta_mean_anomaly": 294.9424,
        "meta_ephemeris_type": 0,
        "meta_classification_type": "U",
        "meta_norad_cat_id": 28626,
        "meta_element_set_no": 999,
        "meta_rev_at_epoch": 4077,
        "meta_bstar": 0,
        "meta_mean_motion_dot": -6.2e-07,
        "meta_mean_motion_ddot": 0,
        "tle_line1": "1 28626U 05008A   25349.29270578 -.00000062  00000+0  00000+0 0  9997",
        "tle_line2": "2 28626   0.1812  81.7516 0001699 275.0715 294.9424  0.98951391 40775"
      },
      "geometry": {
        "type": "Point",
        "coordinates": [
          165.03540921860872,
          0.1764211797265284
        ]
      }
    },
    {
      "type": "Feature",
      "properties": {
        "norad_id": 28659,
        "name": "DIRECTV 8",
        "group": "intelsat",
        "lat": -0.0037666994344861143,
        "lon": -53.068132235436856,
        "alt_km": 35775.766816803174,
        "timestamp": "2025-12-15T22:44:28.591322+00:00",
        "meta_object_name": "DIRECTV 8",
        "meta_object_id": "2005-019A",
        "meta_epoch": "2025-12-15T08:27:38.617056",
        "meta_mean_motion": 1.00272385,
        "meta_eccentricity": 0.00029188,
        "meta_inclination": 0.0143,
        "meta_ra_of_asc_node": 297.3516,
        "meta_arg_of_pericenter": 334.683,
        "meta_mean_anomaly": 180.0933,
        "meta_ephemeris_type": 0,
        "meta_classification_type": "U",
        "meta_norad_cat_id": 28659,
        "meta_element_set_no": 999,
        "meta_rev_at_epoch": 7523,
        "meta_bstar": 0,
        "meta_mean_motion_dot": 2.2e-07,
        "meta_mean_motion_ddot": 0,
        "tle_line1": "1 28659U 05019A   25349.35253029  .00000022  00000+0  00000+0 0  9999",
        "tle_line2": "2 28659   0.0143 297.3516 0002918 334.6830 180.0933  1.00272385 75239"
      },
      "geometry": {
        "type": "Point",
        "coordinates": [
          -53.068132235436856,
          -0.0037666994344861143
        ]
      }
    },
    {
      "type": "Feature",
      "properties": {
        "norad_id": 28702,
        "name": "GALAXY 28 (G-28)",
        "group": "intelsat",
        "lat": -2.7459172170423245,
        "lon": -22.720186076477376,
        "alt_km": 35782.17504604019,
        "timestamp": "2025-12-15T22:44:28.591335+00:00",
        "meta_object_name": "GALAXY 28 (G-28)",
        "meta_object_id": "2005-022A",
        "meta_epoch": "2025-12-15T08:19:38.704800",
        "meta_mean_motion": 1.00271283,
        "meta_eccentricity": 0.00028567,
        "meta_inclination": 2.8258,
        "meta_ra_of_asc_node": 81.2517,
        "meta_arg_of_pericenter": 187.6662,
        "meta_mean_anomaly": 211.5554,
        "meta_ephemeris_type": 0,
        "meta_classification_type": "U",
        "meta_norad_cat_id": 28702,
        "meta_element_set_no": 999,
        "meta_rev_at_epoch": 5013,
        "meta_bstar": 0,
        "meta_mean_motion_dot": -1.67e-06,
        "meta_mean_motion_ddot": 0,
        "tle_line1": "1 28702U 05022A   25349.34697575 -.00000167  00000+0  00000+0 0  9990",
        "tle_line2": "2 28702   2.8258  81.2517 0002856 187.6662 211.5554  1.00271283 50133"
      },
      "geometry": {
        "type": "Point",
        "coordinates": [
          -22.720186076477376,
          -2.7459172170423245
        ]
      }
    },
    {
      "type": "Feature",
      "properties": {
        "norad_id": 29236,
        "name": "GALAXY 16 (G-16)",
        "group": "intelsat",
        "lat": 0.01854865212521092,
        "lon": -33.02220250380175,
        "alt_km": 35781.898301346315,
        "timestamp": "2025-12-15T22:44:28.591348+00:00",
        "meta_object_name": "GALAXY 16 (G-16)",
        "meta_object_id": "2006-023A",
        "meta_epoch": "2025-12-15T09:07:38.849664",
        "meta_mean_motion": 1.0027222,
        "meta_eccentricity": 0.00024927,
        "meta_inclination": 0.0349,
        "meta_ra_of_asc_node": 222.8518,
        "meta_arg_of_pericenter": 36.8162,
        "meta_mean_anomaly": 222.5275,
        "meta_ephemeris_type": 0,
        "meta_classification_type": "U",
        "meta_norad_cat_id": 29236,
        "meta_element_set_no": 999,
        "meta_rev_at_epoch": 7113,
        "meta_bstar": 0,
        "meta_mean_motion_dot": -1.06e-06,
        "meta_mean_motion_ddot": 0,
        "tle_line1": "1 29236U 06023A   25349.38031076 -.00000106  00000+0  00000+0 0  9990",
        "tle_line2": "2 29236   0.0349 222.8518 0002492  36.8162 222.5275  1.00272220 71134"
      },
      "geometry": {
        "type": "Point",
        "coordinates": [
          -33.02220250380175,
          0.01854865212521092
        ]
      }
    },
    {
      "type": "Feature",
      "properties": {
        "norad_id": 29494,
        "name": "DIRECTV 9S",
        "group": "intelsat",
        "lat": -1.720035017645282,
        "lon": -35.241435511158144,
        "alt_km": 35779.50872508083,
        "timestamp": "2025-12-15T22:44:28.591360+00:00",
        "meta_object_name": "DIRECTV 9S",
        "meta_object_id": "2006-043A",
        "meta_epoch": "2025-12-15T09:07:38.849664",
        "meta_mean_motion": 1.00271967,
        "meta_eccentricity": 0.00028727,
        "meta_inclination": 1.9469,
        "meta_ra_of_asc_node": 83.1845,
        "meta_arg_of_pericenter": 185.4098,
        "meta_mean_anomaly": 211.3917,
        "meta_ephemeris_type": 0,
        "meta_classification_type": "U",
        "meta_norad_cat_id": 29494,
        "meta_element_set_no": 999,
        "meta_rev_at_epoch": 4954,
        "meta_bstar": 0,
        "meta_mean_motion_dot": -9.3e-07,
        "meta_mean_motion_ddot": 0,
        "tle_line1": "1 29494U 06043A   25349.38031076 -.00000093  00000+0  00000+0 0  9993",
        "tle_line2": "2 29494   1.9469  83.1845 0002872 185.4098 211.3917  1.00271967 49541"
      },
      "geometry": {
        "type": "Point",
        "coordinates": [
          -35.241435511158144,
          -1.720035017645282
        ]
      }
    }
  ]
}